ONEWEB-0032             
1 45141U 20008L   23237.52823112  .00000487  00000+0  13590-2 0  9994
2 45141  87.8812 240.1898 0002020  93.3242 266.8117 13.10376716173849
ONEWEB-0033             
1 45142U 20008M   23237.50277443 -.00000377  00000+0 -11158-2 0  9991
2 45142  87.8812 240.2026 0002648  91.5097 268.6333 13.10373575173758
ONEWEB-0035             
1 45143U 20008N   23237.53459723  .00000693  00000+0  19497-2 0  9991
2 45143  87.8806 240.1708 0002138  89.0698 271.0674 13.10374510174376
ONEWEB-0036             
1 45144U 20008P   23237.52505707  .00000357  00000+0  98497-3 0  9990
2 45144  87.8814 240.1317 0001839  87.9261 272.2076 13.10374953173911
ONEWEB-0038             
1 45145U 20008Q   23237.50618417  .00000728  00000+0  20189-2 0  9996
2 45145  87.8907 224.9842 0001982 114.1181 246.0154 13.11414266175765
ONEWEB-0039             
1 45146U 20008R   23237.50595497 -.00000518  00000+0 -15213-2 0  9990
2 45146  87.8805 240.1587 0001472  96.0828 264.0467 13.10374225174483
ONEWEB-0040             
1 45147U 20008S   23237.49958870 -.00000604  00000+0 -17660-2 0  9991
2 45147  87.8807 240.1421 0001792  86.7961 273.3372 13.10374118174199
ONEWEB-0041             
1 45148U 20008T   23237.42376243  .00000082  00000+0  10944-3 0  9990
2 45148  87.9377 217.0777 0015808 298.4142  61.5413 13.48409968179670
